*******************************************************************************
 Revised: June 02, 2025                 Mars                            499 / 4
 
 PHYSICAL DATA (updated 2025-Jun-02):
  Vol. mean radius (km) = 3389.92+-0.04   Density (g/cm^3)      =  3.933(5+-4)
  Mass x10^23 (kg)      =    6.4171       Flattening, f         =  1/169.779
  Volume (x10^10 km^3)  =   16.318        Equatorial radius (km)=  3396.19
  Sidereal rot. period  =   24.622962 hr  Sid. rot. rate, rad/s =  0.0000708822 
  Mean solar day (sol)  =   88775.24415 s Polar gravity m/s^2   =  3.758
  Core radius (km)      = ~1700           Equ. gravity  m/s^2   =  3.71
  Geometric Albedo      =    0.150                                              

  GM (km^3/s^2)         = 42828.375662    Mass ratio (Sun/Mars) = 3098703.59
  GM 1-sigma (km^3/s^2) = +- 0.00028      Mass of atmosphere, kg= ~ 2.5 x 10^16
  Mean temperature (K)  =  210            Atmos. pressure (bar) =    0.0056 
  Obliquity to orbit    =   25.19 deg     Max. angular diam.    =  17.9"
  Mean sidereal orb per =    1.88081578 y Visual mag. V(1,0)    =  -1.52
  Mean sidereal orb per =  686.98 d       Orbital speed,  km/s  =  24.13
  Hill's sphere rad. Rp =  319.8          Escape speed, km/s    =   5.027
                                 Perihelion  Aphelion    Mean
  Solar Constant (W/m^2)         717         493         589
  Maximum Planetary IR (W/m^2)   470         315         390
  Minimum Planetary IR (W/m^2)    30          30          30
*******************************************************************************


*******************************************************************************
Ephemeris / WWW_USER Fri Jan 30 16:48:32 2026 Pasadena, USA      / Horizons
*******************************************************************************
Target body name: Mars (499)                      {source: mar099}
Center body name: Solar System Barycenter (0)     {source: DE441}
Center-site name: BODY CENTER
*******************************************************************************
Start time      : A.D. 2030-Sep-01 00:00:00.0000 TDB
Stop  time      : A.D. 2033-Jan-01 00:00:00.0000 TDB
Step-size       : 14400 minutes
*******************************************************************************
Center geodetic : 0.0, 0.0, 0.0                   {E-lon(deg),Lat(deg),Alt(km)}
Center cylindric: 0.0, 0.0, 0.0                   {E-lon(deg),Dxy(km),Dz(km)}
Center radii    : (undefined)
Output units    : AU-D
Calendar mode   : Mixed Julian/Gregorian
Output type     : GEOMETRIC cartesian states
Output format   : 3 (position, velocity, LT, range, range-rate)
Reference frame : ICRF
*******************************************************************************
            JDTDB,            Calendar Date (TDB),                      X,                      Y,                      Z,                     VX,                     VY,                     VZ,                     LT,                     RG,                     RR,
**************************************************************************************************************************************************************************************************************************************************************************
$$SOE
2462995.500000000, A.D. 2031-May-09 00:00:00.0000, -1.093553401796530E+00, -1.024378026838974E+00, -4.403652430034705E-01,  1.052372066243828E-02, -7.703497018882016E-03, -3.817217759188375E-03,  9.020041247018593E-03,  1.561771728421531E+00, -1.239609728265519E-03,
2463005.500000000, A.D. 2031-May-19 00:00:00.0000, -9.841806187458748E-01, -1.097298912402022E+00, -4.767618595866729E-01,  1.133975337625529E-02, -6.867782410324002E-03, -3.455890732596803E-03,  8.947354008900973E-03,  1.549186323277551E+00, -1.275972039582063E-03,
2463015.500000000, A.D. 2031-May-29 00:00:00.0000, -8.669957730751516E-01, -1.161480538532014E+00, -5.093605449754804E-01,  1.208454336299472E-02, -5.956158984806738E-03, -3.057824368027016E-03,  8.872833299097972E-03,  1.536283462352086E+00, -1.302982315777783E-03,
2463025.500000000, A.D. 2031-Jun-08 00:00:00.0000, -7.427594928377567E-01, -1.216180908712583E+00, -5.378004466218885E-01,  1.274840339730854E-02, -4.972217245969622E-03, -2.624404527368637E-03,  8.797039642482667E-03,  1.523160197518392E+00, -1.319937344539678E-03,
2463035.500000000, A.D. 2031-Jun-18 00:00:00.0000, -6.123304908413836E-01, -1.260699325853149E+00, -5.617370121056102E-01,  1.332142505537361E-02, -3.920649571285312E-03, -2.157516534716505E-03,  8.720573478317747E-03,  1.509920491612049E+00, -1.326160940778983E-03,
2463045.500000000, A.D. 2031-Jun-28 00:00:00.0000, -4.766670720776077E-01, -1.294388096203004E+00, -5.808473171620301E-01,  1.379362639871312E-02, -2.807386199580631E-03, -1.659611482869103E-03,  8.644073110377357E-03,  1.496674863505566E+00, -1.321021286238800E-03,
2463055.500000000, A.D. 2031-Jul-08 00:00:00.0000, -3.368269486246900E-01, -1.316665542985798E+00, -5.948360399859413E-01,  1.415514365785626E-02, -1.639719708435629E-03, -1.133768639307870E-03,  8.568211547186122E-03,  1.483539841012725E+00, -1.303952144878871E-03,
2463065.500000000, A.D. 2031-Jul-18 00:00:00.0000, -1.939649092929361E-01, -1.327030168080726E+00, -6.034420196814856E-01,  1.439646900511661E-02, -4.264079135504943E-04, -5.837488483463409E-04,  8.493692009561632E-03,  1.470637183043679E+00, -1.274478217403824E-03,
2463075.500000000, A.D. 2031-Jul-28 00:00:00.0000, -4.932786987150308E-02, -1.325075685782063E+00, -6.064452848433761E-01,  1.450873621805279E-02,  8.222563912894945E-04, -1.403422937407041E-05,  8.421241857527300E-03,  1.458092828082502E+00, -1.232243912668573E-03,
2463085.500000000, A.D. 2031-Aug-07 00:00:00.0000,  9.575315582760573E-02, -1.310506530716888E+00, -6.036743825836756E-01,  1.448405001503399E-02,  2.094422598775864E-03,  5.701523447992358E-04,  8.351604791440655E-03,  1.446035543854418E+00, -1.177043930649807E-03,
2463095.500000000, A.D. 2031-Aug-17 00:00:00.0000,  2.398745576816323E-01, -1.283153306242056E+00, -5.950137742327544E-01,  1.431584928754987E-02,  3.376719746341422E-03,  1.162854768387238E-03,  8.285531307379784E-03,  1.434595274727191E+00, -1.108853293837906E-03,
2463105.500000000, A.D. 2031-Aug-27 00:00:00.0000,  3.815753843293648E-01, -1.242987494912415E+00, -5.804109940911256E-01,  1.399929166189656E-02,  4.654368490109944E-03,  1.757424562450513E-03,  8.223767444496061E-03,  1.423901193375647E+00, -1.027855919943693E-03,
2463115.500000000, A.D. 2031-Sep-06 00:00:00.0000,  5.193564669726051E-01, -1.190134625496948E+00, -5.598832045851374E-01,  1.353163922193593E-02,  5.911379467052801E-03,  2.346601436447278E-03,  8.167041945804634E-03,  1.414079477741456E+00, -9.344706591537496E-04,
2463125.500000000, A.D. 2031-Sep-16 00:00:00.0000,  6.517033032303491E-01, -1.124885001570627E+00, -5.335227341658394E-01,  1.291261997664685E-02,  7.130843340014304E-03,  2.922636753702174E-03,  8.116052082759466E-03,  1.405250856634391E+00, -8.293713367256278E-04,
2463135.500000000, A.D. 2031-Sep-26 00:00:00.0000,  7.771123184384806E-01, -1.047701064300085E+00, -5.015011623091533E-01,  1.214473673926667E-02,  8.295312894802384E-03,  3.477460311466472E-03,  8.071448542646372E-03,  1.397527993065539E+00, -7.134984181656996E-04,
2463145.500000000, A.D. 2031-Oct-06 00:00:00.0000,  8.941198168472680E-01, -9.592205067297506E-01, -4.640715283304770E-01,  1.123349129359977E-02,  9.387268584739239E-03,  4.002887873794008E-03,  8.033819927849576E-03,  1.391012800378507E+00, -5.880604720370411E-04,
2463155.500000000, A.D. 2031-Oct-16 00:00:00.0000,  1.001332628600513E+00, -8.602543942072078E-01, -4.215682953452778E-01,  1.018749450646046E-02,  1.038964788121741E-02,  4.490861111566180E-03,  8.003677552535974E-03,  1.385793809876904E+00, -4.545223467023896E-04,
2463165.500000000, A.D. 2031-Oct-26 00:00:00.0000,  1.097459187237718E+00, -7.517797785441035E-01, -3.744048002481158E-01,  9.018439129687502E-03,  1.128641157031515E-02,  4.933707904331003E-03,  7.981441313538486E-03,  1.381943724443627E+00, -3.145794059364304E-04,
2463175.500000000, A.D. 2031-Nov-05 00:00:00.0000,  1.181339577639347E+00, -6.349266124467478E-01, -3.230680616014897E-01,  7.740919831613685E-03,  1.206311127702378E-02,  5.324407617415350E-03,  7.967427438603372E-03,  1.379517297215644E+00, -1.701185355765875E-04,
2463185.500000000, A.D. 2031-Nov-15 00:00:00.0000,  1.251973013347579E+00, -5.109591516824548E-01, -2.681109898155150E-01,  6.372099701186836E-03,  1.270741747150469E-02,  5.656842323776465E-03,  7.961838871115153E-03,  1.378549666750722E+00, -2.316636280652298E-05,
2463195.500000000, A.D. 2031-Nov-25 00:00:00.0000,  1.308541259951494E+00, -3.812524359097486E-01, -2.101422306971122E-01,  4.931236569098455E-03,  1.320956922280603E-02,  5.926015698795746E-03,  7.964758925548958E-03,  1.379055258503052E+00,  1.241718999922928E-04,
2463205.500000000, A.D. 2031-Dec-05 00:00:00.0000,  1.350426723698734E+00, -2.472648156044523E-01, -1.498140517707486E-01,  3.439095437554753E-03,  1.356271043055332E-02,  6.128223223890008E-03,  7.976148637664037E-03,  1.381027326023482E+00,  2.697783976970237E-04,
2463215.500000000, A.D. 2031-Dec-15 00:00:00.0000,  1.377224261737456E+00, -1.105077950133326E-01, -8.780882832689657E-02,  1.917287429419996E-03,  1.376308690351470E-02,  6.261160375604751E-03,  7.995847995484995E-03,  1.384438164097311E+00,  4.115902294993921E-04,
2463225.500000000, A.D. 2031-Dec-25 00:00:00.0000,  1.388746201966179E+00,  2.748534740801348E-02, -2.482478554012301E-02,  3.875809504516174E-04,  1.381009293277853E-02,  6.323962449481435E-03,  8.023580983195699E-03,  1.389239982067439E+00,  5.476633073747754E-04,
2463235.500000000, A.D. 2032-Jan-04 00:00:00.0000,  1.385020530439736E+00,  1.651906487812874E-01,  3.843831067688603E-02, -1.128768308728787E-03,  1.370616852679229E-02,  6.317175661139213E-03,  8.058964084984693E-03,  1.395366376229570E+00,  6.762275243870886E-04,
